IRIDIUM 36              
1 24967U 97056C   25027.46665347  .00000931  00000+0  30553-3 0  9993
2 24967  86.3942 232.0634 0002193  91.3244 268.8205 14.37376130432005
IRIDIUM 39              
1 25042U 97069D   25027.18914152  .00001348  00000+0  35052-3 0  9994
2 25042  86.3892 271.5932 0019898  60.5044 299.8141 14.48859657428548
IRIDIUM 38              
1 25043U 97069E   25027.26047932  .00001000  00000+0  32521-3 0  9990
2 25043  86.3959 292.4753 0002096 136.9200 223.2162 14.37884793425706
IRIDIUM 42              
1 25077U 97077A   25027.30348146  .00000916  00000+0  30782-3 0  9994
2 25077  86.3972 298.4555 0001720 101.3156 258.8235 14.36138947420974
IRIDIUM 44              
1 25078U 97077B   25027.22060374  .00000951  00000+0  29600-3 0  9996
2 25078  86.3945 280.7769 0003628 106.6092 253.5505 14.40007772423412
IRIDIUM 45              
1 25104U 97082A   25027.28564805  .00022992  00000+0  96382-3 0  9996
2 25104  86.3633 115.9769 0133086 136.8052 224.3722 15.15558074430658
IRIDIUM 24              
1 25105U 97082B   25027.37422363  .00001228  00000+0  36934-3 0  9995
2 25105  86.3954 140.0163 0011631 173.5369 186.5983 14.41846257422922
IRIDIUM 51              
1 25262U 98018A   25027.32145949  .00030645  00000+0  92884-3 0  9997
2 25262  86.3915 124.9511 0109297  67.8064 293.4737 15.28198210425433
